#dP2022  2 14  0  0  0.00000000      97 __u+U IGS14 FIT  IAC
## 2197  86400.00000000   900.00000000 59624 0.0000000000000
+  125   C01C02C03C04C05C06C07C08C09C10C11C12C13C14C16C19C20
+        C21C22C23C24C25C26C27C28C29C30C32C33C34C35C36C37C38
+        C39C40C41C42C43C44C45C46C59C60E01E02E03E04E05E07E08
+        E09E10E11E12E13E14E15E18E21E24E25E26E27E30E31E33E34
+        E36G01G02G03G04G05G06G07G08G09G10G11G12G13G14G15G16
+        G17G18G19G20G21G22G23G24G25G26G27G28G29G30G31G32J01
+        J02J03J07R01R02R03R04R05R07R08R09R11R12R13R14R15R17
+        R18R19R20R21R22R24  0  0  0  0  0  0  0  0  0  0  0
++        15 15 18 15 15  9  9  9  9  9  8  8  8  8  9 11  7
++         7  6  7  7  7  7  7  7  6  7  7  7  6  6  7  7  7
++         7  7  7  7  7  7  7  7 16 15  4  4  4  4  4  4  4
++         4  5  4  4  5  4  4  5  4  4  4  4  5  4  4  4  5
++         4  3  3  3  3  4  3  4  3  3  3  3  3  4  5  4  4
++         3  3  3  4  4  3  3  3  3  3  4  4  4  3  3  3  8
++         8  8 15  6  5  6  5  5  5  5  6  7  6  7  5  5  5
++         5  7  7  6  7  5  0  0  0  0  0  0  0  0  0  0  0
%c M  cc GPS ccc cccc cccc cccc cccc ccccc ccccc ccccc ccccc
%c cc cc ccc ccc cccc cccc cccc cccc ccccc ccccc ccccc ccccc
%f  1.2500000  1.025000000  0.00000000000  0.000000000000000
%f  0.0000000  0.000000000  0.00000000000  0.000000000000000
%i    0    0    0    0      0      0      0      0         0
%i    0    0    0    0      0      0      0      0         0
/* INFORMATION & ANALYSIS CENTER (IAC)            FINAL DATA
/* S/V CLOCKS ARE ALIGNED TO GNSS TIME                      
/* G:C1WC2W R:C1PC2P E:C1XC5X C:C2IC6I J:C1CC2S             
/* PCV:IGS14_2196 OL/AL:FES2004  NONE     YN ORB:CoN CLK:CoN
*  2022 02 15  0  0  0.00000000
PC01 -34363.564742  24422.426073   -276.865826   -127.666181
PC02   4456.188966  41963.225744    742.034322    315.667652
PC03 -14714.633659  39554.445740   -156.494823    811.726371
PC04 -39644.394457  14340.287177   -665.808579 999999.999999
PC05  21927.601222  36034.238666   1175.141924   -486.060976
PC06  -4017.916798  25768.369247  33159.372608     51.870888
PC07 -18168.965811  32277.129766 -20260.703896    -54.197291
PC08  -6638.467983  40112.433536 -10847.566026    134.737382
PC09   5848.615408  29896.991424  29673.629460   -523.551096
PC10 -11347.944557  32248.817554 -24705.372480    139.827021
PC11  21548.278088  17165.424751  -4289.854616   -207.779865
PC12   6891.943181  19117.570697 -19081.059664    680.859451
PC13  -1551.443287  41847.578792  -3409.339124   -116.460716
PC14  14905.201106   8974.139559  21830.318833    455.299489
PC16  -4658.754244  24928.337567  33866.414224     82.393207
PC19 -22051.097744  -1134.116053 -17046.485193    897.001849
PC20  -7221.795925 -14055.613550 -22984.102840   -823.377791
PC21 -12934.535082  19324.265416  15460.835546   -947.248428
PC22 -24737.712133  12903.768279  -1011.444645   -957.917880
PC23  15003.708961 -11609.793847 -20471.729339   -960.110734
PC24   5955.119105  25676.945760  -9133.339616   -943.866134
PC25  15453.535664   8726.344829 -21540.305495   -779.334611
PC26  -4980.240915  26535.818372   6964.256808    779.052580
PC27   2943.122481 -16385.049060  22376.864254    677.523442
PC28  19604.323321  -3686.361150  19519.813967     32.812187
PC29 -25366.701087 -10516.142812  -4954.302851    515.252053
PC30 -15673.744067 -19183.562582  12819.076336    493.357397
PC32  12833.562125 -19407.945115 -15385.499385   -965.726811
PC33  22002.719233   1137.974162  17126.723847   -957.420936
PC34  16450.774693  19095.073634 -12017.390807   -468.864103
PC35 -19978.565917   3842.378046 -19088.446838    140.065754
PC36 -15125.031265  -9658.266371  21388.777370   -904.406783
PC37   6281.205419 -26007.415619  -7970.415801   -962.358016
PC38 -10478.388537  37328.620114 -16339.992795    211.468537
PC39 -10970.692999  21462.297471  34601.204750     34.781422
PC40 -24809.286503  27409.093310 -20427.270486    244.469297
PC41  24820.220330 -12678.362848   1508.018250   -937.575972
PC42   6235.515536  14673.040425  22949.482771   -931.298938
PC43  25273.085475  11060.261674   4297.804607   -941.691690
PC44  -2610.296049  16533.213458 -22342.056435    565.069201
PC45 -14822.275047  11840.485992  20451.590470    680.730316
PC46  -6754.838183 -25043.954327  10343.550934   -168.988354
PC59 -32306.474845  27083.925084    612.746193     -0.844215
PC60   7299.482746  41514.183860  -1344.946016     -0.299727
PE01 -19562.289296   4064.296801  21830.886835   -579.225050
PE02  19622.074107  -4257.853900 -21763.545990    280.306378
PE03  29586.833033    441.356129    569.599858   -527.823796
PE04 -21673.390473  11597.842361  16493.058937   -964.827640
PE05  20258.158832  12456.086936  17626.884924   -208.988477
PE07    727.877736 -17049.237271 -24182.232371   -639.078827
PE08  21282.983250 -11786.143939 -16856.511898   5855.201906
PE09   -416.827402  16912.711977  24290.897516   5360.006806
PE10  -2951.874060  21124.851640 -20524.030249   -495.477421
PE11   5365.632324  26038.774842 -13036.814126   4450.674645
PE12 -10594.774883  13204.461434 -24278.201559   4759.074382
PE13  -4926.958454 -25804.309724  13639.495325    426.543885
PE14 -18976.760347  14723.083556 -21948.133668  -1746.014333
PE15  10623.396755 -13030.682234  24372.424090    763.249965
PE18  10915.095481 -11989.712406  16945.336055  -1791.710954
PE21  -9852.726338 -14925.400118  23582.869971   -717.213618
PE24  -7090.570996  26616.073990 -10814.415515  -1391.014205
PE25   9684.927097  15130.979088 -23521.913391   -563.653187
PE26 -17847.427769 -22837.261405  -5992.818237   -806.395500
PE27   6058.534521 -26437.992392  11872.295336   -232.504825
PE30  18792.724364 -21543.177352  -7733.837224   -274.700203
PE31 -18268.740693  22289.761306   6728.697886   -492.200757
PE33 -19834.833483  -7363.389957 -20685.154851   -459.425339
PE34  19815.061195   7112.750073  20806.509246   -501.840306
PE36  17500.984428  23340.236978   5060.016575   -332.423383
PG01  15887.407390   2625.953724  20915.141609    431.331474
PG02 -14942.246654 -20897.743309  -5803.451461   -650.869151
PG03  19787.877668  -8183.339124  15540.862483   -121.699301
PG04  25859.113296     54.253541  -6244.253224   -189.516377
PG05 -13483.482871  -7424.888874 -21812.934636    -71.453294
PG06  -4435.400508 -24960.988141   7861.096088    201.750044
PG07   9333.985193 -14505.354997 -19679.336305    310.319797
PG08  25592.788364   6251.328616  -4656.775445    -56.214722
PG09  19738.795010  -8748.226436 -15560.035993   -354.140770
PG10  -9795.991709  22826.619409   9122.220164   -320.643345
PG11 -12551.765861 -22478.586517  -6562.296232    -88.755534
PG12 -19573.310447   4233.733287  17112.905608   -171.115936
PG13 -20559.696349 -13301.922193 -10639.181351    261.814608
PG14  11310.060471 -22513.204760   8290.178581    -83.934694
PG15 -26157.777942  -3687.595168  -4510.439603    -83.783680
PG16   9756.140885  11655.627313 -22022.483692   -469.508851
PG17   5356.211476 -14150.594636  22268.681746    575.185634
PG18  -9002.516241  14866.010765 -20056.640483    240.042658
PG19  -3790.633537 -15495.860560  21010.696623    119.013767
PG20  -6996.049784 -16680.480604 -19529.359184    516.701910
PG21  18521.230631  11709.501696  16114.216546    158.042186
PG22   7219.408910  16116.279776  20292.531752    213.676509
PG23 -16782.339435  20415.904778  -2086.348488      1.284353
PG24 -18171.702046  -6260.471704  18202.872785    274.480498
PG25 -19368.011217  15941.577849   8000.120591    285.611722
PG26    341.819928  20704.033083 -16541.413375    183.279784
PG27  18923.851127  12457.042516 -14374.477270    119.293276
PG28   4969.439438 -21199.445533  15884.720811    400.340841
PG29 -22000.331166   4922.452096 -14134.692833   -480.274205
PG30   3128.868549 -21803.491576 -14592.753581   -513.405847
PG31   5703.171390  25154.108549   5067.177105   -164.752523
PG32     68.767675  15424.461835  21761.153613    -67.821447
PJ01 -32206.563560  24494.163922  16951.827321    246.839403
PJ02 -32728.364687  25180.585398  13532.117429     -1.357968
PJ03 -24089.916207  17854.958053 -25029.918193     -0.535330
PJ07 -25378.360630  33666.823092     43.469310     -0.000898
PR01  20140.884253 -12187.051415  -9807.620686      7.080213
PR02   2544.309279 -11893.845302 -22387.777372    509.672120
PR03 -15312.216806  -4796.886040 -19764.178362     51.489825
PR04 -24251.474051   4898.266886  -6156.233647    127.711586
PR05 -19841.621104  11765.648712  10872.067772     87.716964
PR07  15971.234052   4432.526279  19446.462266     31.643588
PR08  24283.867466  -4935.503300   6165.874836    -63.577165
PR09  -1579.031086  24765.966433  -6043.694690     39.512000
PR11  11503.301099  -3507.025961 -22487.763425     45.561433
PR12   9731.896189 -20589.535799 -11496.509010     17.188119
PR13   2297.420089 -24916.537282   4951.301720    -18.292431
PR14  -7002.111784 -14334.177603  19905.265490     74.359209
PR15 -11747.683408   4164.814350  22267.538124     98.182237
PR17 -18883.608310 -17171.287747    367.802884    501.661802
PR18 -18724.103518  -7655.292007 -15482.704105    107.276807
PR19  -9773.212267   4799.565389 -23062.487716   -178.215082
PR20   7318.727675  17527.672279 -17039.628292    -64.950141
PR21  19211.542127  16727.364800   1124.824565   -278.100614
PR22  18428.235100   7183.927243  16161.093917   -164.748818
PR24  -7995.537036 -17811.789861  16441.610660     80.237386
EOF
